STARLINK-35294          
1 65755U 25216X   25290.33336806 -.00097766  00000+0 -17693-2 0  9998
2 65755  53.1593 281.3140 0002008  86.9222 112.8557 15.49346853  4612
STARLINK-35275          
1 65756U 25216Y   25290.33336806 -.00087800  00000+0 -15865-2 0  9996
2 65756  53.1592 281.2973 0001618  81.8558 125.5906 15.49340779  4617
STARLINK-35211          
1 65757U 25216Z   25290.33336806 -.00092884  00000+0 -16797-2 0  9990
2 65757  53.1593 281.2928 0001708  85.2197 124.1425 15.49344632  4619
STARLINK-35313          
1 65758U 25216AA  25290.33336806 -.00097435  00000+0 -17631-2 0  9996
2 65758  53.1592 281.2896 0001490  81.3407 129.9297 15.49350599  4509
STARLINK-34692          
1 65759U 25216AB  25290.33336806 -.00100552  00000+0 -18205-2 0  9990
2 65759  53.1592 281.2853 0001511  81.6980 131.4952 15.49349757  4584
STARLINK-34890          
1 65760U 25216AC  25290.33336806 -.00087308  00000+0 -15772-2 0  9991
2 65760  53.1593 281.3058 0002128  88.0326 115.5746 15.49343485  4604
STARLINK-34889          
1 65761U 25216AD  25290.33336806 -.00092518  00000+0 -16730-2 0  9996
2 65761  53.1594 281.3009 0001612  81.7936 123.7339 15.49344409  4668
KUIPER-00120            
1 65762U 25217A   25290.32554722  .00030074  00000+0  88968-3 0  9996
2 65762  51.8646 337.3877 0009565 191.5808 168.4959 15.34613560  3361
KUIPER-00132            
1 65763U 25217B   25290.31316692  .00033417  00000+0  95955-3 0  9996
2 65763  51.8659 337.3120 0006135 175.4598 184.6445 15.35522719  3360
KUIPER-00133            
1 65764U 25217C   25290.32261475  .00029398  00000+0  86578-3 0  9990
2 65764  51.8670 337.3724 0008194 186.8906 173.1968 15.34779359  3366
KUIPER-00139            
1 65765U 25217D   25290.31599169  .00021117  00000+0  61587-3 0  9998
2 65765  51.8686 337.3328 0006764 180.0201 180.0786 15.35289682  3360
KUIPER-00142            
1 65766U 25217E   25290.29944865  .00038110  00000+0  10615-2 0  9999
2 65766  51.8710 337.2303 0003336 136.3484 223.7767 15.36423996  3363
KUIPER-00145            
1 65767U 25217F   25290.30189272  .00032740  00000+0  91969-3 0  9990
2 65767  51.8726 337.2449 0003919 152.8864 207.2328 15.36229888  3368
KUIPER-00147            
1 65768U 25217G   25290.31471728  .00019920  00000+0  58001-3 0  9997
2 65768  51.8672 337.3230 0006829 173.9213 186.1857 15.35379516  3368
KUIPER-00148            
1 65769U 25217H   25290.32474295  .00030566  00000+0  90294-3 0  9990
2 65769  51.8633 337.3806 0009653 188.3636 171.7190 15.34649789  3363
KUIPER-00150            
1 65770U 25217J   25290.32292370  .00029266  00000+0  86282-3 0  9991
2 65770  51.8617 337.3668 0008961 188.1050 171.9792 15.34741339  3366
KUIPER-00151            
1 65771U 25217K   25290.30498244  .00021290  00000+0  60570-3 0  9999
2 65771  51.8706 337.2646 0005189 154.8663 205.2576 15.36071682  3360
KUIPER-00152            
1 65772U 25217L   25290.28888563  .00037002  00000+0  10070-2 0  9991
2 65772  51.8738 337.1557 0002299  77.7688 282.3556 15.37159305  3369
KUIPER-00153            
1 65773U 25217M   25290.25496478  .00039566  00000+0  11521-2 0  9998
2 65773  51.8654 337.6687 0008225 181.3697 178.7267 15.34989423  3358
KUIPER-00155            
1 65774U 25217N   25290.30946854  .00021878  00000+0  62862-3 0  9995
2 65774  51.8677 337.2908 0005403 167.0745 193.0380 15.35742025  3369
KUIPER-00156            
1 65775U 25217P   25290.29317030  .00032651  00000+0  89720-3 0  9995
2 65775  51.8738 337.1858 0002619 109.4458 250.6812 15.36920522  3369
KUIPER-00158            
1 65776U 25217Q   25290.30636095  .00036899  00000+0  10427-2 0  9998
2 65776  51.8714 337.2736 0005065 162.2000 197.9165 15.35982918  3368
KUIPER-00163            
1 65777U 25217R   25290.31802962  .00030560  00000+0  88892-3 0  9999
2 65777  51.8642 337.3399 0007647 182.5052 177.5897 15.35152691  3368
KUIPER-00165            
1 65778U 25217S   25290.30045713  .00041233  00000+0  11481-2 0  9990
2 65778  51.8716 337.2364 0004153 139.2777 220.8520 15.36394606  3364
KUIPER-00166            
1 65779U 25217T   25290.23111689  .00021988  00000+0  61294-3 0  9992
2 65779  51.8727 337.5220 0003462 116.3807 243.7535 15.36693082  3352
KUIPER-00167            
1 65780U 25217U   25290.31147040  .00018651  00000+0  54001-3 0  9994
2 65780  51.8701 337.3055 0005750 172.1730 187.9347 15.35607703  3362
KUIPER-00168            
1 65781U 25217V   25290.28637668  .00036390  00000+0  98408-3 0  9990
2 65781  51.8740 337.1435 0001930  57.6535 302.4638 15.37365108  3361
KUIPER-00169            
1 65782U 25217W   25290.29746727  .00042155  00000+0  11655-2 0  9993
2 65782  51.8732 337.2162 0003085 130.4626 229.6630 15.36605909  3362
KUIPER-00170            
1 65783U 25217X   25290.31007977  .00034113  00000+0  97357-3 0  9993
2 65783  51.8688 337.2959 0006038 165.0796 195.0369 15.35704801  3365
KUIPER-00171            
1 65784U 25217Y   25290.30265373  .00031081  00000+0  87213-3 0  9990
2 65784  51.8694 337.2489 0004367 154.9424 205.1775 15.36289315  3362
KUIPER-00172            
1 65785U 25217Z   25290.29158025  .00043109  00000+0  11758-2 0  9998
2 65785  51.8735 337.1778 0002628 103.7717 256.3562 15.37020730  3361
KUIPER-00173            
1 65786U 25217AA  25290.22971564  .00020675  00000+0  57535-3 0  9990
2 65786  51.8721 337.5137 0002766 120.2470 239.8790 15.36787633  3352
KUIPER-00174            
1 65787U 25217AB  25290.28775786  .00032557  00000+0  88664-3 0  9994
2 65787  51.8739 337.1502 0002586  72.9201 287.2069 15.37200516  3367
KUIPER-00176            
1 65788U 25217AC  25290.29119302  .00040106  00000+0  10963-2 0  9997
2 65788  51.8732 337.1764 0002123  77.5169 282.6055 15.36986941  3368
STARLINK-35330          
1 65791U 25218A   25290.26439628  .00033250  00000+0  61019-3 0  9996
2 65791  97.6027 150.7245 0001772  91.8825 268.2628 15.49203514  3332
STARLINK-35373          
1 65792U 25218B   25290.26405249  .00070897  00000+0  12925-2 0  9998
2 65792  97.6026 150.7261 0001951  95.8441 264.3031 15.49210442  3330
STARLINK-35383          
1 65793U 25218C   25290.26336167  .00042517  00000+0  77807-3 0  9990
2 65793  97.6028 150.7272 0002037  92.4788 267.6696 15.49231039  3336
STARLINK-35378          
1 65794U 25218D   25290.26301718  .00035987  00000+0  65951-3 0  9995
2 65794  97.6030 150.7270 0002134  90.0436 270.1058 15.49225429  3337
STARLINK-35406          
1 65795U 25218E   25290.26370607  .00045397  00000+0  83027-3 0  9999
2 65795  97.6029 150.7260 0002035  91.8617 268.2867 15.49233936  3333
STARLINK-35390          
1 65796U 25218F   25290.26232874  .00040972  00000+0  75073-3 0  9999
2 65796  97.6028 150.7291 0001930  95.3323 264.8148 15.49204113  3332
STARLINK-35412          
1 65797U 25218G   25290.26198508  .00052449  00000+0  95906-3 0  9994
2 65797  97.6029 150.7285 0001939  93.0708 267.0764 15.49205578  3333
STARLINK-35414          
1 65798U 25218H   25290.26267238  .00043380  00000+0  79371-3 0  9994
2 65798  97.6031 150.7288 0002045  89.4877 270.6608 15.49231999  3338
STARLINK-35357          
1 65799U 25218J   25290.26129291  .00226962  00000+0  40423-2 0  9995
2 65799  97.6028 150.7294 0002224  92.6971 267.4534 15.49280679  3333
STARLINK-35300          
1 65800U 25218K   25290.26164016  .00044683  00000+0  81819-3 0  9995
2 65800  97.6030 150.7282 0001874  89.4570 270.6895 15.49203606  3336
STARLINK-35296          
1 65801U 25218L   25290.26060433  .00057974  00000+0  10586-2 0  9993
2 65801  97.6032 150.7297 0001636  91.9895 268.1542 15.49220788  3330
STARLINK-34919          
1 65802U 25218M   25290.26095116  .00038325  00000+0  70264-3 0  9999
2 65802  97.6030 150.7297 0002031  91.7493 268.3990 15.49201018  3335
STARLINK-35286          
1 65803U 25218N   25290.26026109  .00086872  00000+0  15797-2 0  9995
2 65803  97.6029 150.7302 0001775  96.3900 263.7553 15.49218751  3335
STARLINK-35266          
1 65804U 25218P   25290.25991648  .00069029  00000+0  12586-2 0  9992
2 65804  97.6032 150.7312 0001710  94.5745 265.5700 15.49215941  3339
STARLINK-35273          
1 65805U 25218Q   25290.25957198  .00037428  00000+0  68621-3 0  9995
2 65805  97.6030 150.7308 0001731  93.2984 266.8465 15.49205737  3331
STARLINK-35047          
1 65806U 25218R   25290.25888220  .00036379  00000+0  66709-3 0  9994
2 65806  97.6031 150.7319 0001670  89.0513 271.0929 15.49207024  3332
STARLINK-35285          
1 65807U 25218S   25290.25924670  .00091849  00000+0  16704-2 0  9997
2 65807  97.6031 150.7316 0001795 105.1643 254.9806 15.49194724  3338
STARLINK-34580          
1 65808U 25218T   25290.25853798  .00092997  00000+0  16895-2 0  9996
2 65808  97.6031 150.7332 0001763 101.9970 258.1478 15.49220500  3332
STARLINK-35289          
1 65809U 25218U   25290.25819311  .00057269  00000+0  10457-2 0  9991
2 65809  97.6032 150.7327 0001385  77.4503 282.6902 15.49223918  3337
STARLINK-35268          
1 65810U 25218V   25290.25750427  .00040316  00000+0  73882-3 0  9992
2 65810  97.6032 150.7338 0001733  94.3963 265.7485 15.49202886  3335
STARLINK-35224          
1 65811U 25218W   25290.25784832  .00052293  00000+0  95595-3 0  9992
2 65811  97.6032 150.7333 0001706  89.2074 270.9372 15.49214586  3330
STARLINK-35271          
1 65812U 25218X   25290.25715946  .00046544  00000+0  85182-3 0  9996
2 65812  97.6032 150.7343 0001745  99.1837 260.9611 15.49209074  3333
STARLINK-35215          
1 65813U 25218Y   25290.25681499  .00040487  00000+0  74186-3 0  9994
2 65813  97.6032 150.7353 0001675  94.1922 265.9520 15.49206298  3336
STARLINK-35157          
1 65814U 25218Z   25290.25647061  .00080587  00000+0  14668-2 0  9995
2 65814  97.6033 150.7353 0001540  88.2859 271.8568 15.49216522  3331
FENGYUN 3H              
1 65815U 25219A   25290.28423783  .00000146  00000+0  89315-4 0  9999
2 65815  98.6482 231.1284 0001578  74.7653 285.3698 14.19880618  2917
